start=new Date('2022-03-14T00:00:00.000Z').valueOf();
sats=[{"ECCENTRICITY":"0.00015680","EPHEMERIS_TYPE":"0","CLASSIFICATION_TYPE":"U","OBJECT_NAME":"STARLINK-1651","MEAN_MOTION_DOT":"0.00000301","MEAN_MOTION":"15.06393989","TIME_SYSTEM":"UTC","FILE":"3357855","EPOCH":"2022-03-13T08:40:31.310400","ELEMENT_SET_NO":"999","TLE_LINE2":"2 46366  53.0543  33.8166 0001568  57.9264 302.1877 15.06393989 85281","SITE":"AFETR","LAUNCH_DATE":"2020-09-03","ARG_OF_PERICENTER":"57.9264","PERIAPSIS":"546.146","RA_OF_ASC_NODE":"33.8166","OBJECT_TYPE":"PAYLOAD","RCS_SIZE":"LARGE","OBJECT_ID":"2020-062AT","COUNTRY_CODE":"US","INCLINATION":"53.0543","NORAD_CAT_ID":"46366","MEAN_MOTION_DDOT":"0.0000000000000","DECAY_DATE":null,"BSTAR":"0.00003910800000","PERIOD":"95.593","MEAN_ANOMALY":"302.1877","REF_FRAME":"TEME","APOAPSIS":"548.318","MEAN_ELEMENT_THEORY":"SGP4","CENTER_NAME":"EARTH","SEMIMAJOR_AXIS":"6925.367","GP_ID":"198651245","TLE_LINE1":"1 46366U 20062AT  22072.36147350  .00000301  00000-0  39108-4 0  9996","REV_AT_EPOCH":"8528"},{"ARG_OF_PERICENTER":"49.7247","RA_OF_ASC_NODE":"57.3347","PERIAPSIS":"545.699","TLE_LINE2":"2 46368  53.0533  57.3347 0002197  49.7247 310.3934 15.06397863 84990","SITE":"AFETR","LAUNCH_DATE":"2020-09-03","FILE":"3358388","EPOCH":"2022-03-13T16:37:34.108032","ELEMENT_SET_NO":"999","MEAN_MOTION":"15.06397863","TIME_SYSTEM":"UTC","OBJECT_NAME":"STARLINK-1658","MEAN_MOTION_DOT":"-0.00000072","CLASSIFICATION_TYPE":"U","EPHEMERIS_TYPE":"0","ECCENTRICITY":"0.00021970","GP_ID":"198687409","SEMIMAJOR_AXIS":"6925.355","TLE_LINE1":"1 46368U 20062AV  22072.69275588 -.00000072  00000-0  14087-4 0  9994","REV_AT_EPOCH":"8499","APOAPSIS":"548.742","MEAN_ELEMENT_THEORY":"SGP4","CENTER_NAME":"EARTH","BSTAR":"0.00001408700000","MEAN_ANOMALY":"310.3934","PERIOD":"95.592","REF_FRAME":"TEME","NORAD_CAT_ID":"46368","DECAY_DATE":null,"MEAN_MOTION_DDOT":"0.0000000000000","COUNTRY_CODE":"US","INCLINATION":"53.0533","OBJECT_ID":"2020-062AV","OBJECT_TYPE":"PAYLOAD","RCS_SIZE":"LARGE"},{"CLASSIFICATION_TYPE":"U","OBJECT_NAME":"STARLINK-1670","MEAN_MOTION_DOT":"-0.00002022","ECCENTRICITY":"0.00022620","EPHEMERIS_TYPE":"0","TLE_LINE2":"2 46370  53.0563  57.5130 0002262  59.3647 300.7565 15.06385116 84982","SITE":"AFETR","LAUNCH_DATE":"2020-09-03","ARG_OF_PERICENTER":"59.3647","RA_OF_ASC_NODE":"57.5130","PERIAPSIS":"545.693","MEAN_MOTION":"15.06385116","TIME_SYSTEM":"UTC","EPOCH":"2022-03-13T15:44:30.935040","FILE":"3358388","ELEMENT_SET_NO":"999","COUNTRY_CODE":"US","INCLINATION":"53.0563","NORAD_CAT_ID":"46370","MEAN_MOTION_DDOT":"0.0000000000000","DECAY_DATE":null,"OBJECT_TYPE":"PAYLOAD","RCS_SIZE":"LARGE","OBJECT_ID":"2020-062AX","GP_ID":"198687419","SEMIMAJOR_AXIS":"6925.394","REV_AT_EPOCH":"8498","TLE_LINE1":"1 46370U 20062AX  22072.65591360 -.00002022  00000-0 -11688-3 0  9993","BSTAR":"-0.00011688000000","MEAN_ANOMALY":"300.7565","PERIOD":"95.593","REF_FRAME":"TEME","APOAPSIS":"548.826","MEAN_ELEMENT_THEORY":"SGP4","CENTER_NAME":"EARTH"},{"ECCENTRICITY":"0.00018810","EPHEMERIS_TYPE":"0","CLASSIFICATION_TYPE":"U","OBJECT_NAME":"STARLINK-1688","MEAN_MOTION_DOT":"-0.00002800","MEAN_MOTION":"15.06390477","TIME_SYSTEM":"UTC","ELEMENT_SET_NO":"999","EPOCH":"2022-03-13T15:33:53.384256","FILE":"3358388","SITE":"AFETR","TLE_LINE2":"2 46371  53.0544  57.5216 0001881  51.5593 308.5564 15.06390477 84988","LAUNCH_DATE":"2020-09-03","PERIAPSIS":"545.940","RA_OF_ASC_NODE":"57.5216","ARG_OF_PERICENTER":"51.5593","RCS_SIZE":"LARGE","OBJECT_TYPE":"PAYLOAD","OBJECT_ID":"2020-062AY","INCLINATION":"53.0544","COUNTRY_CODE":"US","NORAD_CAT_ID":"46371","MEAN_MOTION_DDOT":"0.0000000000000","DECAY_DATE":null,"BSTAR":"-0.00016920000000","REF_FRAME":"TEME","PERIOD":"95.593","MEAN_ANOMALY":"308.5564","CENTER_NAME":"EARTH","MEAN_ELEMENT_THEORY":"SGP4","APOAPSIS":"548.545","GP_ID":"198688168","SEMIMAJOR_AXIS":"6925.378","REV_AT_EPOCH":"8498","TLE_LINE1":"1 46371U 20062AY  22072.64853454 -.00002800  00000-0 -16920-3 0  9996"},{"CLASSIFICATION_TYPE":"U","MEAN_MOTION_DOT":"-0.00001830","OBJECT_NAME":"STARLINK-1689","ECCENTRICITY":"0.00018560","EPHEMERIS_TYPE":"0","LAUNCH_DATE":"2020-09-03","TLE_LINE2":"2 46372  53.0533  77.1821 0001856  55.3893 304.7271 15.06404032 84711","SITE":"AFETR","ARG_OF_PERICENTER":"55.3893","PERIAPSIS":"545.916","RA_OF_ASC_NODE":"77.1821","TIME_SYSTEM":"UTC","MEAN_MOTION":"15.06404032","FILE":"3358388","EPOCH":"2022-03-13T17:22:41.042496","ELEMENT_SET_NO":"999","COUNTRY_CODE":"US","INCLINATION":"53.0533","DECAY_DATE":null,"MEAN_MOTION_DDOT":"0.0000000000000","NORAD_CAT_ID":"46372","OBJECT_TYPE":"PAYLOAD","RCS_SIZE":"LARGE","OBJECT_ID":"2020-062AZ","TLE_LINE1":"1 46372U 20062AZ  22072.72408614 -.00001830  00000-0 -10395-3 0  9992","REV_AT_EPOCH":"8471","SEMIMAJOR_AXIS":"6925.336","GP_ID":"198686661","PERIOD":"95.592","MEAN_ANOMALY":"304.7271","REF_FRAME":"TEME","BSTAR":"-0.00010395000000","APOAPSIS":"548.487","CENTER_NAME":"EARTH","MEAN_ELEMENT_THEORY":"SGP4"},{"APOAPSIS":"548.104","CENTER_NAME":"EARTH","MEAN_ELEMENT_THEORY":"SGP4","PERIOD":"95.593","MEAN_ANOMALY":"261.5175","REF_FRAME":"TEME","BSTAR":"-0.00016095000000","TLE_LINE1":"1 46374U 20062BB  22072.53887493 -.00002677  00000-0 -16095-3 0  9992","REV_AT_EPOCH":"8566","SEMIMAJOR_AXIS":"6925.378","GP_ID":"198649494","OBJECT_ID":"2020-062BB","OBJECT_TYPE":"PAYLOAD","RCS_SIZE":"LARGE","MEAN_MOTION_DDOT":"0.0000000000000","DECAY_DATE":null,"NORAD_CAT_ID":"46374","COUNTRY_CODE":"US","INCLINATION":"53.0567","FILE":"3357855","EPOCH":"2022-03-13T12:55:58.793952","ELEMENT_SET_NO":"999","TIME_SYSTEM":"UTC","MEAN_MOTION":"15.06390478","ARG_OF_PERICENTER":"98.5955","PERIAPSIS":"546.382","RA_OF_ASC_NODE":"8.0310","LAUNCH_DATE":"2020-09-03","TLE_LINE2":"2 46374  53.0567   8.0310 0001243  98.5955 261.5175 15.06390478 85660","SITE":"AFETR","EPHEMERIS_TYPE":"0","ECCENTRICITY":"0.00012430","MEAN_MOTION_DOT":"-0.00002677","OBJECT_NAME":"STARLINK-1711","CLASSIFICATION_TYPE":"U"},{"BSTAR":"-0.00000412710000","MEAN_ANOMALY":"313.5393","PERIOD":"95.592","REF_FRAME":"TEME","APOAPSIS":"548.553","MEAN_ELEMENT_THEORY":"SGP4","CENTER_NAME":"EARTH","SEMIMAJOR_AXIS":"6925.329","GP_ID":"198687920","REV_AT_EPOCH":"8536","TLE_LINE1":"1 46375U 20062BC  22072.88487862 -.00000343  00000-0 -41271-5 0  9991","OBJECT_TYPE":"PAYLOAD","RCS_SIZE":"LARGE","OBJECT_ID":"2020-062BC","COUNTRY_CODE":"US","INCLINATION":"53.0542","NORAD_CAT_ID":"46375","DECAY_DATE":null,"MEAN_MOTION_DDOT":"0.0000000000000","MEAN_MOTION":"15.06406221","TIME_SYSTEM":"UTC","FILE":"3358388","EPOCH":"2022-03-13T21:14:13.512768","ELEMENT_SET_NO":"999","TLE_LINE2":"2 46375  53.0542  31.4599 0001961  46.5759 313.5393 15.06406221 85366","SITE":"AFETR","LAUNCH_DATE":"2020-09-03","ARG_OF_PERICENTER":"46.5759","RA_OF_ASC_NODE":"31.4599","PERIAPSIS":"545.836","ECCENTRICITY":"0.00019610","EPHEMERIS_TYPE":"0","CLASSIFICATION_TYPE":"U","OBJECT_NAME":"STARLINK-1724","MEAN_MOTION_DOT":"-0.00000343"},{"OBJECT_TYPE":"PAYLOAD","RCS_SIZE":"LARGE","OBJECT_ID":"2020-062BD","INCLINATION":"53.0571","COUNTRY_CODE":"US","MEAN_MOTION_DDOT":"0.0000000000000","DECAY_DATE":null,"NORAD_CAT_ID":"46376","REF_FRAME":"TEME","PERIOD":"95.592","MEAN_ANOMALY":"308.2891","BSTAR":"-0.00001263700000","CENTER_NAME":"EARTH","MEAN_ELEMENT_THEORY":"SGP4","APOAPSIS":"548.381","REV_AT_EPOCH":"8545","TLE_LINE1":"1 46376U 20062BD  22072.30249840 -.00000470  00000-0 -12637-4 0  9995","GP_ID":"198657910","SEMIMAJOR_AXIS":"6925.320","ECCENTRICITY":"0.00017270","EPHEMERIS_TYPE":"0","CLASSIFICATION_TYPE":"U","MEAN_MOTION_DOT":"-0.00000470","OBJECT_NAME":"STARLINK-1742","TIME_SYSTEM":"UTC","MEAN_MOTION":"15.06409179","ELEMENT_SET_NO":"999","EPOCH":"2022-03-13T07:15:35.861760","FILE":"3358006","LAUNCH_DATE":"2020-09-03","SITE":"AFETR","TLE_LINE2":"2 46376  53.0571  34.0805 0001727  51.8254 308.2891 15.06409179 85456","RA_OF_ASC_NODE":"34.0805","PERIAPSIS":"545.989","ARG_OF_PERICENTER":"51.8254"},{"REF_FRAME":"TEME","PERIOD":"95.592","MEAN_ANOMALY":"302.8768","BSTAR":"-0.00003453500000","MEAN_ELEMENT_THEORY":"SGP4","CENTER_NAME":"EARTH","APOAPSIS":"548.492","REV_AT_EPOCH":"8498","TLE_LINE1":"1 46380U 20062BH  22072.66696626 -.00000796  00000-0 -34535-4 0  9999","SEMIMAJOR_AXIS":"6925.361","GP_ID":"198687162","OBJECT_TYPE":"PAYLOAD","RCS_SIZE":"LARGE","OBJECT_ID":"2020-062BH","INCLINATION":"53.0562","COUNTRY_CODE":"US","DECAY_DATE":null,"MEAN_MOTION_DDOT":"0.0000000000000","NORAD_CAT_ID":"46380","TIME_SYSTEM":"UTC","MEAN_MOTION":"15.06396029","ELEMENT_SET_NO":"999","FILE":"3358388","EPOCH":"2022-03-13T16:00:25.884864","LAUNCH_DATE":"2020-09-03","SITE":"AFETR","TLE_LINE2":"2 46380  53.0562  57.4449 0001828  57.2397 302.8768 15.06396029 84983","PERIAPSIS":"545.960","RA_OF_ASC_NODE":"57.4449","ARG_OF_PERICENTER":"57.2397","ECCENTRICITY":"0.00018280","EPHEMERIS_TYPE":"0","CLASSIFICATION_TYPE":"U","MEAN_MOTION_DOT":"-0.00000796","OBJECT_NAME":"STARLINK-1758"},{"ECCENTRICITY":"0.00017960","EPHEMERIS_TYPE":"0","CLASSIFICATION_TYPE":"U","OBJECT_NAME":"STARLINK-1769","MEAN_MOTION_DOT":"-0.00000677","MEAN_MOTION":"15.06397056","TIME_SYSTEM":"UTC","EPOCH":"2022-03-13T20:21:09.860256","FILE":"3358008","ELEMENT_SET_NO":"999","TLE_LINE2":"2 46382  53.0569  31.6467 0001796  48.5908 311.5235 15.06397056 85518","SITE":"AFETR","LAUNCH_DATE":"2020-09-03","ARG_OF_PERICENTER":"48.5908","RA_OF_ASC_NODE":"31.6467","PERIAPSIS":"545.979","OBJECT_TYPE":"PAYLOAD","RCS_SIZE":"LARGE","OBJECT_ID":"2020-062BK","COUNTRY_CODE":"US","INCLINATION":"53.0569","NORAD_CAT_ID":"46382","DECAY_DATE":null,"MEAN_MOTION_DDOT":"0.0000000000000","BSTAR":"-0.00002658000000","MEAN_ANOMALY":"311.5235","PERIOD":"95.592","REF_FRAME":"TEME","APOAPSIS":"548.466","MEAN_ELEMENT_THEORY":"SGP4","CENTER_NAME":"EARTH","GP_ID":"198657941","SEMIMAJOR_AXIS":"6925.358","TLE_LINE1":"1 46382U 20062BK  22072.84803079 -.00000677  00000-0 -26580-4 0  9992","REV_AT_EPOCH":"8551"}];
